#dP2024 12  4  0  0  0.00000000      96 __u+U IGS20 EXT  IAC
## 2343 259200.00000000   900.00000000 60648 0.0000000000000
+   52   G02G03G04G05G06G07G08G09G10G11G12G13G14G15G16G17G18
+        G19G20G21G22G23G24G25G26G27G28G29G30G31G32R01R02R03
+        R04R05R07R08R09R11R12R14R15R16R17R18R19R20R21R22R24
+        R26  0  0  0  0  0  0  0  0  0  0  0  0  0  0  0  0
+          0  0  0  0  0  0  0  0  0  0  0  0  0  0  0  0  0
++         8  6  7  6  7  7  8  7  8  8  7  8  7  8  8  7  7
++         7  7  7  8  7  7  6  8  7  7  7  8  6  7  8  7  9
++        10  9  7  8  9  7  7  7  7  9  8  8 10  9  8  8  8
++         8  0  0  0  0  0  0  0  0  0  0  0  0  0  0  0  0
++         0  0  0  0  0  0  0  0  0  0  0  0  0  0  0  0  0
%c M  cc GPS ccc cccc cccc cccc cccc ccccc ccccc ccccc ccccc
%c cc cc ccc ccc cccc cccc cccc cccc ccccc ccccc ccccc ccccc
%f  0.0000000  0.000000000  0.00000000000  0.000000000000000
%f  0.0000000  0.000000000  0.00000000000  0.000000000000000
%i    0    0    0    0      0      0      0      0         0
%i    0    0    0    0      0      0      0      0         0
/* IAC                                ULTRA-RAPID PREDICTION
/* S/V CLOCKS ARE ALIGNED TO GNSS TIME                      
/* G:C1WC2W R:C1PC2P E:C1XC5X C:C2IC6I J:C1CC2S             
/* PCV:IGS20_2317 OL/AL:FES2004  NONE     YN ORB:CoN CLK:CoN
*  2024 12 04 14  0  0.00000000
PG02 -17638.277401  -4591.349903  19916.748362   -299.780693
PG03 -19713.990781   8030.914583  15647.616695    616.482500
PG04 -25733.469339     70.096349  -6875.631670    490.357025
PG05  13318.172738   7103.576005 -22034.442347   -194.986644
PG06   4606.902548  25193.627768   6877.731310    -18.486321
PG07 -10766.395329  12295.488305 -20311.820944    -16.892072
PG08 -25566.571273  -6401.721985  -4998.874159    430.298251
PG09 -20944.447481   7692.700961 -14549.667693    472.562268
PG10   7772.342387 -22341.337297  11952.045850   -221.015233
PG11  12387.306525  22646.066120  -6351.945111   -752.116069
PG12  19425.912440  -3122.817148  17534.645273   -556.250986
PG13  20103.321193  13838.025522 -10999.371333    688.664864
PG14 -11091.110303  22592.246414   8152.397612    553.335696
PG15  26008.255249   3474.785364  -5116.372263    235.550477
PG16  -9210.943652 -12497.687825 -21866.971098   -111.793003
PG17  -5966.102008  14284.785815  22011.453499    533.012360
PG18   9023.575410 -14775.926585 -20044.669005   -660.562281
PG19   6117.950350  16034.429559  20242.743532    570.199817
PG20   5614.733105  17758.688385 -18905.700038    368.181424
PG21 -18552.908320 -11629.005464  16144.042722     95.831519
PG22  -5432.201925  21360.085205  15432.893439    -84.097427
PG23  16759.572174 -20365.209549  -1717.684002    376.668714
PG24  18299.550479   6957.296937  17659.467214   -476.036268
PG25  19357.558261 -15923.452171   8013.984350    498.452543
PG26  -1231.097307 -20618.549838 -16661.066534      3.394383
PG27 -18691.933942 -12832.553538 -14481.353200    -34.429599
PG28  -4032.369590 -24755.248934   8721.883052   -498.479662
PG29  21658.040214  -5348.762748 -14550.847712   -558.666814
PG30  -2435.033902  22126.661468 -14138.847949   -268.431881
PG31 -10380.719097 -24168.880457  -1927.590649   -220.599183
PG32   1069.832170 -15250.068501  21948.730457   -564.264236
PR01 -12972.418923  -6966.678190  20825.941966    106.605292
PR02 -24180.742981    976.074065   8223.843301    -39.284952
PR03 -21948.846659   9107.616120  -9318.710360    112.594693
PR04  -7989.247609  11582.303483 -21255.341179    266.945416
PR05  10254.988420   8217.048447 -21847.475166    141.694234
PR07  21619.807543  -9255.912466   9843.158278     96.282707
PR08   7483.660612 -11777.276587  21400.374325     -6.174097
PR09  11668.173427    166.916194  22703.275062    224.289014
PR11   7498.412731 -24389.469139   -262.329676      5.497221
PR12  -3282.440547 -17903.618799 -17845.346236     48.002681
PR14 -12572.504734  16730.830714 -14564.018948     27.354060
PR15  -6761.097444  24504.033536   2103.171562     73.488657
PR16   3152.727711  17964.542483  17819.605202     31.340718
PR17  -9792.142439   4930.130573  23044.777199    145.586470
PR18   3008.360938  16684.531661  19063.274592    175.098028
PR19  12815.594022  20864.514994   7169.389058   -300.733277
PR20  17710.385823  12049.946757 -13803.594686   -122.783046
PR21  10554.195528  -3770.845076 -22908.184584   -156.732245
PR22  -3452.633169 -17625.328237 -18086.017314    -30.632099
PR24 -18428.480809 -10583.044511  14119.316761    -82.718797
PR26   9371.714219 -11849.386906  20575.887103   -133.048780
*  2024 12 04 14 15  0.00000000
PG02 -18552.840228  -6480.407999  18508.056390   -299.772819
PG03 -18657.870747   6413.655334  17561.944569    616.490784
PG04 -26320.666440   -242.016915  -4109.627901    490.362687
PG05  11935.862232   9163.377498 -22060.958674   -194.987673
PG06   4095.548524  24395.171838   9586.733755    -18.512731
PG07 -11836.281860  10051.123505 -20965.346262    -16.890650
PG08 -24847.106255  -6584.077586  -7684.875116    430.306706
PG09 -22441.877360   7362.166053 -12306.432461    472.577184
PG10   8629.928458 -23195.366684   9386.939502   -221.028818
PG11  12373.689442  23261.503508  -3564.737439   -752.116746
PG12  18139.427740  -1397.100393  19049.526936   -556.253175
PG13  18753.818732  13651.368592 -13385.567883    688.666205
PG14 -11808.394045  23023.583263   5462.008378    553.342717
PG15  25343.597250   3792.630943  -7787.552398    235.554609
PG16  -7572.168175 -14259.100450 -21365.285029   -111.784211
PG17  -8324.222046  13840.100229  21532.772733    532.998379
PG18   9998.878762 -12626.272221 -21045.018628   -660.562151
PG19   3777.009626  15574.533080  21110.207246    570.203690
PG20   4564.429079  19567.133631 -17358.781891    368.181152
PG21 -19240.825941 -13112.857383  14113.447247     95.830630
PG22  -6602.313518  22423.762727  13288.895970    -84.099770
PG23  16720.054502 -19943.927552  -4599.384238    376.675721
PG24  19107.450219   8796.617293  15982.833976   -476.033778
PG25  18941.618295 -14846.767533  10579.783347    498.452253
PG26    -79.289450 -22012.876787 -14761.194820      3.382043
PG27 -16977.683923 -12803.255469 -16481.864174    -34.429421
PG28  -3339.314001 -23815.629854  11258.061428   -498.489649
PG29  23121.260897  -4889.290932 -12288.584499   -558.663984
PG30  -3371.934605  20602.960759 -16115.893754   -268.424675
PG31 -10110.726606 -24312.352598    935.265743   -220.598537
PG32   3512.988454 -14979.122886  21861.166217   -564.258993
PR01 -10411.214049  -7622.713396  22001.198226    106.606510
PR02 -22986.832530    864.800964  11147.962987    -39.284807
PR03 -22850.382239   9495.908749  -6291.736365    112.595350
PR04 -10441.245132  12246.112720 -19772.236210    266.946908
PR05   7561.464154   8792.833029 -22706.941006    141.694808
PR07  22579.242028  -9649.496705   6835.953239     96.283459
PR08   9934.197187 -12455.033404  19963.903204     -6.174023
PR09  10978.656362   2885.664325  22857.045264    224.291197
PR11   7313.441079 -24270.024505   2942.208859      5.496450
PR12  -2804.694186 -19920.565464 -15656.355075     48.003119
PR14 -11980.635317  14879.746496 -16887.076403     27.354157
PR15  -6654.273646  24597.002604  -1099.481864     73.488544
PR16   2696.997999  19979.838140  15608.669689     31.340901
PR17 -11748.867757   2917.711450  22461.646551    145.589464
PR18   1415.691706  14814.293003  20726.470435    175.099863
PR19  12265.163643  19924.310448  10177.950619   -300.734464
PR20  18855.174654  13096.857567 -11062.230614   -122.783605
PR21  12488.081968  -1765.015097 -22168.603834   -156.735060
PR22  -1954.738833 -15813.100785 -19890.945808    -30.643138
PR24 -19604.736430 -11636.643203  11447.338301    -82.720173
PR26  11709.098019 -12529.843345  18907.540066   -133.048479
EOF
